[{"OBJECT_NAME":"STARLINK-34602","OBJECT_ID":"2025-189L","EPOCH":"2026-03-09T15:36:49.197024","MEAN_MOTION":15.30194042,"ECCENTRICITY":9.62e-5,"INCLINATION":53.1598,"RA_OF_ASC_NODE":206.7178,"ARG_OF_PERICENTER":91.0813,"MEAN_ANOMALY":269.0298,"EPHEMERIS_TYPE":0,"CLASSIFICATION_TYPE":"U","NORAD_CAT_ID":65333,"ELEMENT_SET_NO":999,"REV_AT_EPOCH":3110,"BSTAR":0.00093235868,"MEAN_MOTION_DOT":0.00027351,"MEAN_MOTION_DDOT":0},{"OBJECT_NAME":"FENGYUN 1C DEB","OBJECT_ID":"1999-025BLC","EPOCH":"2026-03-08T16:01:16.538592","MEAN_MOTION":14.99951534,"ECCENTRICITY":0.01625238,"INCLINATION":98.6028,"RA_OF_ASC_NODE":151.5668,"ARG_OF_PERICENTER":148.1189,"MEAN_ANOMALY":212.9995,"EPHEMERIS_TYPE":0,"CLASSIFICATION_TYPE":"U","NORAD_CAT_ID":31222,"ELEMENT_SET_NO":999,"REV_AT_EPOCH":1270,"BSTAR":0.0010673359,"MEAN_MOTION_DOT":0.00017492,"MEAN_MOTION_DDOT":0}]
